0 OPS 4682 DEB
1 38364U 65027BR  13283.68838058 -.00000264  00000-0 -96624-3 0  1151
2 38364 090.2885 253.4966 0033103 045.7641 314.6187 12.95039806521438
0 OPS 4682 DEB
1 38364U 65027BR  13286.85607824  .00000501  00000-0  17571-2 0  1164
2 38364 090.2889 253.5800 0033079 037.9807 322.3637 12.95033108521849
0 OPS 4682 DEB
1 38364U 65027BR  13289.32843754  .00000587  00000-0  20629-2 0  1176
2 38364 090.2898 253.6450 0032935 031.7822 328.5276 12.95035081522165
0 OPS 4682 DEB
1 38364U 65027BR  13291.33723170  .00000101  00000-0  33463-3 0  1183
2 38364 090.2902 253.6982 0032820 026.7432 333.5371 12.95041080522422
0 OPS 4682 DEB
1 38364U 65027BR  13293.34601750 -.00000252  00000-0 -92172-3 0  1197
2 38364 090.2905 253.7517 0032713 021.6632 338.5863 12.95044711522680
0 OPS 4682 DEB
1 38364U 65027BR  13295.81835723  .00000043  00000-0  12771-3 0  1205
2 38364 090.2901 253.8176 0032511 015.4093 344.8008 12.95041070523009
